INTELSAT 26             
1 24732C 97007A   20293.00000000  .00000108  00000-0  00000-0 0  2933
2 24732   9.2172  42.2228 0001830  93.3146 316.0327  1.00276112    12
INTELSAT 26             
1 24732C 97007A   20296.00000000  .00000108  00000-0  00000-0 0  2969
2 24732   9.2193  42.2435 0001522  93.9839 318.3089  1.00276751    17
INTELSAT 26         [PM]
1 24732C 97007A   20297.12500000  .00000108  00000-0  00000-0 0  2979
2 24732   9.2196  42.2689 0001602 338.0341 120.3941  1.00265747    12
GALAXY 25               
1 24812C 97026A   20293.00000000  .00000246  00000-0  00000-0 0  2936
2 24812   2.2139  89.2967 0005025 152.5414 179.0190  1.00273932    16
GALAXY 25           [PM]
1 24812C 97026A   20293.14156250  .00000245  00000-0  00000-0 0  2939
2 24812   2.2143  89.2932 0004739 148.7815 233.8828  1.00269793    13
GALAXY 25               
1 24812C 97026A   20296.00000000  .00000245  00000-0  00000-0 0  2961
2 24812   2.2230  89.3472 0004991 152.1070 182.3411  1.00270985    13
GALAXY 25           [PM]
1 24812C 97026A   20300.12143519  .00000245  00000-0  00000-0 0  3009
2 24812   2.2297  89.3409 0005316 153.9860 228.2540  1.00270741    17
INTELSAT 5              
1 24916C 97046A   20293.00000000  .00000186  00000-0  00000-0 0  2936
2 24916   5.9623  64.8252 0002860 174.7842  11.3309  1.00272816    10
INTELSAT 5              
1 24916C 97046A   20296.00000000  .00000186  00000-0  00000-0 0  2962
2 24916   5.9683  64.8364 0003078 176.0601  12.9947  1.00274114    18
GALAXY 11               
1 26038C 99071A   20293.00000000 -.00000073  00000-0  00000-0 0  2939
2 26038   1.5161  95.2297 0000727 184.5018  15.1239  1.00270769    16
GALAXY 11               
1 26038C 99071A   20296.00000000 -.00000073  00000-0  00000-0 0  2965
2 26038   1.5257  95.3422 0000591 178.6742  23.7927  1.00270648    15
INTELSAT 9              
1 26451C 00043A   20293.00000000 -.00000191  00000-0  00000-0 0  2930
2 26451   5.9504  65.0261 0003721 157.2400 115.6999  1.00268901    13
INTELSAT 9              
1 26451C 00043A   20296.00000000 -.00000191  00000-0  00000-0 0  2966
2 26451   5.9564  65.0436 0004019 154.8232 121.0486  1.00271350    14
INTELSAT 9          [PM]
1 26451C 00043A   20296.74256944 -.00000191  00000-0  00000-0 0  2967
2 26451   5.9577  65.0226 0002169 187.7835 356.1456  1.00274590    10
INTELSAT 12             
1 26590C 00068A   20293.00000000  .00000104  00000-0  00000-0 0  2934
2 26590   3.2190  85.0779 0004539 140.9223 226.1991  1.00272805    13
INTELSAT 12             
1 26590C 00068A   20296.00000000  .00000104  00000-0  00000-0 0  2960
2 26590   3.2278  85.1069 0004621 142.1359 227.9109  1.00271290    16
INTELSAT 12         [PM]
1 26590C 00068A   20296.49334491  .00000104  00000-0  00000-0 0  2967
2 26590   3.2287  85.1064 0004240 154.7632  33.3732  1.00270986    13
INTELSAT 1R             
1 26608C 00072A   20293.00000000 -.00000047  00000-0  00000-0 0  2936
2 26608   2.9812  85.5730 0002307   8.5324  90.9507  1.00269781    13
INTELSAT 1R             
1 26608C 00072A   20296.00000000 -.00000047  00000-0  00000-0 0  2962
2 26608   2.9887  85.6042 0002310   9.3944  93.0076  1.00269752    16
INTELSAT 10             
1 26766C 01019A   20293.00000000  .00000216  00000-0  00000-0 0  2930
2 26766   4.1704  78.0588 0003739 127.8628 229.5273  1.00273354    13
INTELSAT 10             
1 26766C 01019A   20296.00000000  .00000216  00000-0  00000-0 0  2966
2 26766   4.1783  78.0823 0004030 127.0189 233.3085  1.00271110    13
INTELSAT 10         [PM]
1 26766C 01019A   20296.60658565  .00000216  00000-0  00000-0 0  2967
2 26766   4.1794  78.0854 0003461 147.5843  71.7059  1.00271326    14
INTELSAT 901            
1 26824C 01024A   20293.00000000 -.00000114  00000-0  00000-0 0  2939
2 26824   0.0480  65.9229 0000837 129.9977 164.5403  1.00270578    15
INTELSAT 901            
1 26824C 01024A   20296.00000000 -.00000113  00000-0  00000-0 0  2964
2 26824   0.0407  68.9908 0000892 126.8420 167.5846  1.00270971    12
INTELSAT 902            
1 26900C 01039A   20293.00000000 -.00000192  00000-0  00000-0 0  2936
2 26900   0.9110  95.1527 0002967 109.9602 132.7414  1.00271163    14
INTELSAT 902        [PM]
1 26900C 01039A   20295.52905093 -.00000192  00000-0  00000-0 0  2953
2 26900   0.9195  95.2680 0002972 109.7241 325.8119  1.00271649    17
INTELSAT 902            
1 26900C 01039A   20296.00000000 -.00000192  00000-0  00000-0 0  2962
2 26900   0.9207  95.3112 0003009 111.4842 134.0136  1.00271922    14
INTELSAT 902        [PM]
1 26900C 01039A   20299.87811343 -.00000192  00000-0  00000-0 0  2993
2 26900   0.9274  95.3763 0003169 114.6639  90.7056  1.00273434    15
INTELSAT 904            
1 27380C 02007A   20293.00000000 -.00000123  00000-0  00000-0 0  2939
2 27380   1.7500  91.9713 0003171 116.2757 150.2052  1.00272153    13
INTELSAT 904            
1 27380C 02007A   20296.00000000 -.00000123  00000-0  00000-0 0  2965
2 27380   1.7594  92.0462 0003248 119.8786 149.4818  1.00271596    15
INTELSAT 904        [PM]
1 27380C 02007A   20298.81631944 -.00000123  00000-0  00000-0 0  2985
2 27380   1.7645  92.0674 0003219 121.4081  84.5759  1.00272681    11
INTELSAT 905        [PM]
1 27438C 02027A   20290.73737269 -.00000094  00000-0  00000-0 0  2900
2 27438   1.5615  92.8892 0002414  98.0143  75.7865  1.00271861    13
INTELSAT 905            
1 27438C 02027A   20293.00000000 -.00000094  00000-0  00000-0 0  2932
2 27438   1.5706  92.8290 0002607 102.6982 167.9377  1.00272035    19
INTELSAT 905            
1 27438C 02027A   20296.00000000 -.00000094  00000-0  00000-0 0  2968
2 27438   1.5800  92.9150 0002638 107.0780 166.4270  1.00271699    10
GALAXY 3C               
1 27445C 02030A   20293.00000000 -.00000061  00000-0  00000-0 0  2938
2 27445   0.0271 288.1226 0001303  47.9369 316.8191  1.00271972    17
GALAXY 3C               
1 27445C 02030A   20296.00000000 -.00000061  00000-0  00000-0 0  2964
2 27445   0.0238 288.4891 0001496  48.2941 319.0648  1.00272025    16
INTELSAT 906            
1 27513C 02041A   20293.00000000  .00000105  00000-0  00000-0 0  2934
2 27513   0.5755  97.4256 0003182 111.4513 243.2222  1.00272463    18
INTELSAT 906            
1 27513C 02041A   20296.00000000  .00000105  00000-0  00000-0 0  2960
2 27513   0.5853  97.6556 0003222 112.5974 244.7999  1.00271462    15
INTELSAT 906        [PM]
1 27513C 02041A   20301.03575232  .00000105  00000-0  00000-0 0  3011
2 27513   0.5939  97.7143 0003526 121.8048 253.3742  1.00271374    19
GALAXY 12               
1 27715C 03013B   20293.00000000  .00000149  00000-0  00000-0 0  2936
2 27715   1.7857  91.3568 0001599  99.6740  67.9099  1.00270750    16
GALAXY 12               
1 27715C 03013B   20296.00000000  .00000149  00000-0  00000-0 0  2962
2 27715   1.7948  91.4353 0001596 103.8823  66.5745  1.00271757    18
GALAXY 12           [PM]
1 27715C 03013B   20301.59712963  .00000149  00000-0  00000-0 0  3018
2 27715   1.8035  91.3649 0002114 114.8468 276.1899  1.00270969    10
GALAXY 23               
1 27854C 03034A   20293.00000000  .00000103  00000-0  00000-0 0  2933
2 27854   0.0143 248.1885 0002933 315.6279  63.1364  1.00270597    17
GALAXY 23               
1 27854C 03034A   20296.00000000  .00000105  00000-0  00000-0 0  2961
2 27854   0.0085 223.0879 0002973 344.3697  62.4439  1.00271298    18
GALAXY 23           [PM]
1 27854C 03034A   20301.06395833  .00000103  00000-0  00000-0 0  3010
2 27854   0.0136 179.2174 0003152  18.0002 100.7033  1.00272807    13
GALAXY 13               
1 27954C 03044A   20293.00000000  .00000137  00000-0  00000-0 0  2932
2 27954   0.0293 114.1010 0001131  52.7643  94.0682  1.00271124    12
GALAXY 13               
1 27954C 03044A   20296.00000000  .00000112  00000-0  00000-0 0  2961
2 27954   0.0326  90.3727 0000268  16.7348 156.7868  1.00272000    17
GALAXY 13           [PM]
1 27954C 03044A   20297.01250000  .00000129  00000-0  00000-0 0  2979
2 27954   0.0332  88.1368 0000620 306.1438 235.1430  1.00273173    17
INTELSAT 10-02          
1 28358C 04022A   20293.00000000  .00000106  00000-0  00000-0 0  2934
2 28358   0.0026 225.0287 0002783 331.8810 190.0516  1.00271737    17
INTELSAT 10-02          
1 28358C 04022A   20296.00000000  .00000068  00000-0  00000-0 0  2967
2 28358   0.0095 239.8600 0002830 318.8412 191.2140  1.00271286    16
INTELSAT 10-02      [PM]
1 28358C 04022A   20302.17916667  .00000079  00000-0  00000-0 0  3028
2 28358   0.0155 229.4486 0003121 333.3645 257.7005  1.00271102    19
GALAXY 28               
1 28702C 05022A   20293.00000000 -.00000133  00000-0  00000-0 0  2939
2 28702   0.0001 182.7779 0000340 141.4438 334.7380  1.00271072    14
GALAXY 28           [PM]
1 28702C 05022A   20293.42362269 -.00000160  00000-0  00000-0 0  2933
2 28702   0.0005 182.6161 0000227 119.8737 149.3904  1.00272290    12
GALAXY 28               
1 28702C 05022A   20296.00000000 -.00000116  00000-0  00000-0 0  2966
2 28702   0.0026 173.5805 0000221 120.3387   7.9968  1.00270358    13
GALAXY 14               
1 28790C 05030A   20293.00000000  .00000150  00000-0  00000-0 0  2933
2 28790   0.0627  74.8825 0002373 123.8379  64.2354  1.00272935    19
GALAXY 14               
1 28790C 05030A   20296.00000000  .00000127  00000-0  00000-0 0  2963
2 28790   0.0412  65.4234 0002463 130.5409  69.9487  1.00270416    11
GALAXY 14           [PM]
1 28790C 05030A   20296.67836806  .00000127  00000-0  00000-0 0  2967
2 28790   0.0388  63.4370 0002502 134.1036 313.2508  1.00270466    16
GALAXY 15               
1 28884C 05041A   20293.00000000  .00000169  00000-0  00000-0 0  2939
2 28884   0.0608  89.0848 0001697  98.7996  67.0648  1.00271912    19
GALAXY 15           [PM]
1 28884C 05041A   20295.66709491  .00000169  00000-0  00000-0 0  2955
2 28884   0.0442  87.9290 0001850  99.3999 310.4166  1.00269606    11
